[{"OBJECT_NAME":"STARLINK-5168","OBJECT_ID":"2022-136W","EPOCH":"2026-03-09T22:05:11.176800","MEAN_MOTION":15.08851703,"ECCENTRICITY":0.00024416,"INCLINATION":53.2172,"RA_OF_ASC_NODE":342.7407,"ARG_OF_PERICENTER":126.5718,"MEAN_ANOMALY":233.5499,"EPHEMERIS_TYPE":0,"CLASSIFICATION_TYPE":"U","NORAD_CAT_ID":54071,"ELEMENT_SET_NO":999,"REV_AT_EPOCH":18688,"BSTAR":0.0001218469,"MEAN_MOTION_DOT":1.652e-5,"MEAN_MOTION_DDOT":0},{"OBJECT_NAME":"CZ-4B DEB","OBJECT_ID":"2010-051H","EPOCH":"2026-03-08T15:03:50.230080","MEAN_MOTION":14.83710316,"ECCENTRICITY":0.01132064,"INCLINATION":97.7035,"RA_OF_ASC_NODE":129.0061,"ARG_OF_PERICENTER":211.6401,"MEAN_ANOMALY":147.7975,"EPHEMERIS_TYPE":0,"CLASSIFICATION_TYPE":"U","NORAD_CAT_ID":38326,"ELEMENT_SET_NO":999,"REV_AT_EPOCH":80705,"BSTAR":0.001509593,"MEAN_MOTION_DOT":0.00013943,"MEAN_MOTION_DDOT":0}]
